[
  "TORO                    \r\n1 60530U 24149BQ  26187.16288332  .00002882  00000+0  25874-3 0  9999\r\n2 60530  97.6782 261.4766 0001603  95.3247 264.8157 14.96500059102798\r\n",
  "TORO3                   \r\n1 68481U 26067BT  26186.87591691  .00000689  00000+0  73213-4 0  9999\r\n2 68481  97.7681 144.9705 0001355 235.1990 124.9101 14.92157745 14514\r\n",
  "SATORO-T3               \r\n1 64589U 25135BP  26187.31297103  .00001955  00000+0  18687-3 0  9990\r\n2 64589  97.7726 301.6466 0003532 265.3666  94.7151 14.94406556 56760\r\n",
  "GEMINI-POLLUX           \r\n1 69000U 26100W   26187.23838131  .00002030  00000+0  20418-3 0  9999\r\n2 69000  97.7298  84.3578 0001710 118.1197 242.0195 14.92300147  9543\r\n",
  "FORMOSAT-2 (ROCSAT 2)   \r\n1 28254U 04018A   26187.39667205 -.00000221  00000+0 -11846-3 0  9995\r\n2 28254  98.8457 154.2897 0000552 275.3917 196.6962 14.01255668131446\r\n",
  "FORMOSAT-3 FM6          \r\n1 29047U 06011A   26187.39067514  .00000394  00000+0  16227-3 0  9995\r\n2 29047  71.9776 271.9845 0049076 206.4769 153.3862 14.31413983 57150\r\n",
  "FORMOSAT-3 FM1          \r\n1 29048U 06011B   26187.38461550  .00000330  00000+0  13864-3 0  9997\r\n2 29048  71.9642 180.3929 0041790 169.7914 190.4083 14.31403233 59524\r\n",
  "FORMOSAT-3 FM5          \r\n1 29049U 06011C   26187.43464854  .00000439  00000+0  17987-3 0  9994\r\n2 29049  72.0189   4.5288 0033710 176.1334 184.0072 14.31419617 55424\r\n",
  "FORMOSAT-3 FM3          \r\n1 29050U 06011D   26187.34659094  .00001250  00000+0  22883-3 0  9991\r\n2 29050  72.0135 270.7983 0044957 251.0547 108.5735 14.67002771 79184\r\n",
  "FORMOSAT-3 FM4          \r\n1 29051U 06011E   26187.32320018  .00000289  00000+0  12142-3 0  9999\r\n2 29051  72.0036 262.2660 0064451  56.4298 304.2971 14.31553971 58003\r\n",
  "FORMOSAT-3 FM2          \r\n1 29052U 06011F   26187.39094517  .00000471  00000+0  19080-3 0  9990\r\n2 29052  72.0334 343.0028 0037638 128.4776 231.9749 14.31633932 55539\r\n",
  "PACE                    \r\n1 40022U 14033N   26187.46763782  .00004076  00000+0  24819-3 0  9999\r\n2 40022  98.1244 193.5243 0007373 141.4933 218.6822 15.11016531655942\r\n",
  "FORMOSAT-5              \r\n1 42920U 17049A   26187.36257869  .00000178  00000+0  56073-4 0  9998\r\n2 42920  98.2249 262.2460 0011924  30.2824 329.9058 14.50906135469459\r\n",
  "FORMOSAT 7-3            \r\n1 44343U 19036E   26186.95220531  .00005650  00000+0  31835-3 0  9995\r\n2 44343  23.9998  49.3754 0000902 119.7962 240.2632 15.09945716386089\r\n",
  "FORMOSAT 7-1            \r\n1 44349U 19036L   26187.31621181  .00002632  00000+0  19961-3 0  9991\r\n2 44349  23.9979 263.4271 0001076  59.0347 301.0260 14.96591424387524\r\n",
  "FORMOSAT 7-4            \r\n1 44350U 19036M   26187.47213352  .00002950  00000+0  22693-3 0  9996\r\n2 44350  23.9994 324.4824 0001496  62.6748 297.3905 14.96587863386968\r\n",
  "FORMOSAT 7-2            \r\n1 44351U 19036N   26186.89442351  .00003235  00000+0  25139-3 0  9990\r\n2 44351  23.9998  22.6902 0000890  55.3635 304.6950 14.96582619386391\r\n",
  "FORMOSAT 7-6            \r\n1 44353U 19036Q   26187.36074560  .00002562  00000+0  19366-3 0  9995\r\n2 44353  23.9965 200.3597 0000826 343.6736  16.3738 14.96590213384697\r\n",
  "FORMOSAT 7-5            \r\n1 44358U 19036V   26187.00469512  .00002226  00000+0  16494-3 0  9992\r\n2 44358  23.9968 141.5081 0000618  79.7251 280.3320 14.96565058385170\r\n",
  "FORMOSAT-7R (TRITON)    \r\n1 58017U 23155B   26187.22972671  .00001828  00000+0  18982-3 0  9996\r\n2 58017  97.8353 268.4901 0002085  62.7515 297.3916 14.91176909149063\r\n",
  "NIGHTJAR                \r\n1 60535U 24149BV  26187.21587656  .00003699  00000+0  30910-3 0  9995\r\n2 60535  97.6820 263.6554 0001897 112.3235 247.8189 14.99128169145724\r\n",
  "IRIS-F3                 \r\n1 62619U 25009L   26187.18818935  .00005749  00000+0  21787-3 0  9999\r\n2 62619  97.4036 267.8832 0004961 247.7117 112.3597 15.27274040 81728\r\n",
  "IRIS-F2                 \r\n1 62684U 25009CD  26187.20534406  .00014723  00000+0  55408-3 0  9991\r\n2 62684  97.3881 266.7927 0003957 277.9629  82.1161 15.27215563139367\r\n",
  "FORMOSAT-8A             \r\n1 66666U 25276A   26187.20837797  .00001858  00000+0  15128-3 0  9990\r\n2 66666  97.6545 261.1660 0004377 162.0356 198.1023 15.00732482 32915\r\n",
  "LILIUM-2                \r\n1 66679U 25276P   26187.15787677  .00002650  00000+0  13336-3 0  9999\r\n2 66679  97.4142 259.8216 0004582 310.1912  49.8921 15.18067599 33271\r\n",
  "BLACK KITE-1            \r\n1 66741U 25276CD  26187.19437279  .00008417  00000+0  38373-3 0  9998\r\n2 66741  97.4232 260.6386 0004006 283.7517  76.3273 15.20887090 30615\r\n",
  "T.MICROSAT-1            \r\n1 66766U 25276DE  26187.15586530  .00006470  00000+0  29456-3 0  9995\r\n2 66766  97.4149 260.5885 0002179 108.5934 251.5538 15.21032122 33329\r\n",
  "LILIUM-3                \r\n1 66770U 25276DJ  26187.18965156  .00002807  00000+0  13499-3 0  9998\r\n2 66770  97.4234 260.6344 0002441 146.6546 213.4843 15.19613374 33310\r\n",
  "T.MICROSAT-2            \r\n1 68433U 26067T   26187.38122996  .00005436  00000+0  27371-3 0  9999\r\n2 68433  97.4576 145.4629 0005884  15.6467 344.4947 15.17592243 14840\r\n",
  "PARUS-6U1               \r\n1 68456U 26067AS  26187.37547138  .00005996  00000+0  30035-3 0  9994\r\n2 68456  97.4560 145.4465 0005778  18.5382 341.6061 15.17732055 14849\r\n",
  "BLACK KITE-2            \r\n1 68474U 26067BL  26187.18619789  .00002429  00000+0  24108-3 0  9997\r\n2 68474  97.7556 145.1948 0002642 139.3394 220.8023 14.92674049 14567\r\n",
  "PEARL-1B                \r\n1 68980U 26100A   26187.24255534  .00002389  00000+0  24930-3 0  9996\r\n2 68980  97.7339  84.2250 0008915  85.3683 274.8554 14.90643099  9524\r\n",
  "PEARL-1A                \r\n1 68990U 26100L   26187.29172824  .00001575  00000+0  16465-3 0  9992\r\n2 68990  97.7286  84.2787 0006933  97.5509 262.6497 14.91041109  9549\r\n"
]